End_Station Id,End_Latitude,End_Longitude,complete_adress,postcode,county,district,city,state,End_Station_Name
3696.05,40.6630619,-73.9538746,"404 Rogers Avenue, New York, NY 11225, United States of America",11225,Kings County,Brooklyn,New York,New York,Rogers Ave & Sterling St
4161.01,40.6786,-73.90369,"1 Van Sinderen Avenue, New York, NY 11233, United States of America",11233,Kings County,Brooklyn,New York,New York,Van Sinderen Ave & Truxton St
4243.01,40.6812117,-74.00860912,"Extech Building Materials, 87 Bowne Street, New York, NY 11231, United States of America",11231,Not found,Columbia Street Waterfront District,New York,New York,Commerce St & Van Brunt St
4476.03,40.6900815,-73.947915,"661 Lafayette Avenue, New York, NY 11216, United States of America",11216,Not found,Not found,New York,New York,Marcy Ave & Lafayette Ave
4488.08,40.6902375,-73.99203074,"Citi Bike - Court Street & State Street, Court Street, New York, NY 11231, United States of America",11231,Kings County,Brooklyn,New York,New York,Court St & State St
4553.04,40.69128258,-73.9452416,"238 Kosciuszko Street, New York, NY 11221, United States of America",11221,Not found,Not found,New York,New York,Kosciuszko St & Tompkins Ave
4590.01,40.69231661,-74.01486576,"108 Governors Island, New York, NY 10004, United States of America",10004,New York County,Manhattan,New York,New York,Soissons Landing
4659.02,40.69327018,-73.97703874,"Citi Bike, Myrtle Avenue, New York, NY 11237, United States of America",11237,Kings County,Brooklyn,New York,New York,Myrtle Ave & St Edwards St
4700.06,40.69608941,-73.97803415,"Citi Bike - Park Avenue & Saint Edwards Street, Park Avenue, New York, NY 11251, United States of America",11251,Kings County,Brooklyn,New York,New York,Park Ave & St Edwards St
4798.02,40.69922,-73.89795,"59-02 Summerfield Street, New York, NY 11385, United States of America",11385,Queens County,Queens,New York,New York,Forest Ave & Summerfield St
4846.01,40.70122128,-74.01234218,"Battery Maritime Building, 10 South Street, New York, NY 10004, United States of America",10004,New York County,Financial District,New York,New York,South St & Whitehall St
4889.06,40.701907,-74.013942,"Citi Bike - Bus Slip & State St, Peter Minuit Plaza, New York, NY 10004, United States of America",10004,New York County,Financial District,New York,New York,Bus Slip & State St
4920.13,40.70188859,-74.01089877,"Citi Bike - South St & Broad St, South Street, New York, NY 10038, United States of America",10038,New York County,Financial District,New York,New York,South St & Broad St
4953.04,40.70355377,-74.00670227,"Pier 11, New York, NY 10041, United States of America",10041,New York County,Financial District,New York,New York,South St & Gouverneur Ln
4962.01,40.70463334,-74.01361706,"Citi Bike - Broadway & Battery Pl, Battery Place, New York, NY 10275, United States of America",10275,New York County,Financial District,New York,New York,Broadway & Battery Pl
4962.02,40.70366171,-74.01318133,"Whitehall Street-South Ferry, Stone Street, New York, NY 10004, United States of America",10004,New York County,Financial District,New York,New York,Whitehall St & Bridge St
4962.08,40.70365182,-74.01167797,"Citi Bike - Broad St & Bridge St, Broad Street, New York, NY 10004, United States of America",10004,New York County,Financial District,New York,New York,Broad St & Bridge St
4993.02,40.7047177,-74.00926027,"Citi Bike - Pearl St & Hanover Square, Pearl Street, New York, NY 10038, United States of America",10038,New York County,Financial District,New York,New York,Pearl St & Hanover Square
4993.13,40.70336687,-74.00786787,"100 Old Slip - New York City Police Museum, 100 Old Slip, New York, NY 10005, United States of America",10005,New York County,Financial District,New York,New York,Old Slip & South St
4993.15,40.70469668,-74.00803417,"Duane Reade, 95 Wall Street, New York, NY 10005, United States of America",10005,New York County,Manhattan,New York,New York,Water St & Gouverneur Ln
4996.08,40.70510918,-73.94407279,"Citi Bike - McKibbin St & Manhattan Ave, McKibbin Street, New York, NY 11206, United States of America",11206,Kings County,Brooklyn,New York,New York,McKibbin St & Manhattan Ave
5001.08,40.70569254,-74.01677685,"1st Place, New York, NY 10280, United States of America",10280,New York County,Battery Park City,New York,New York,Little West St & 1 Pl
5024.1,40.70641076,-74.00559738,"175 Water Street, New York, NY 10038, United States of America",10038,New York County,Manhattan,New York,New York,Water St &  Fletcher St
5024.1,40.70641076,-74.00559738,"175 Water Street, New York, NY 10038, United States of America",10038,New York County,Manhattan,New York,New York,Water St &  Fletcher St
5033.01,40.70594513,-74.01321888,"29 Broadway, New York, NY 10006, United States of America",10006,New York County,Financial District,New York,New York,Broadway & Morris St
5065.1,40.70706456,-74.00731853,"Citi Bike - Maiden Ln & Pearl St, Maiden Lane, New York, NY 10038, United States of America",10038,New York County,Manhattan Community Board 1,New York,New York,Maiden Ln & Pearl St
5065.04,40.70862144,-74.00722156,"Citi Bike - John St & William St, John Street, New York, NY 10038, United States of America",10038,New York County,Manhattan Community Board 1,New York,New York,John St & William St
5065.1,40.70706456,-74.00731853,"Citi Bike - Maiden Ln & Pearl St, Maiden Lane, New York, NY 10038, United States of America",10038,New York County,Manhattan Community Board 1,New York,New York,Maiden Ln & Pearl St
5065.12,40.70717936,-74.00887308,"60 William Street, New York, NY 10005, United States of America",10005,New York County,Manhattan,New York,New York,William St & Pine St
5065.14,40.70838,-74.00495,"Citi Bike - Cliff St & Fulton St, Cliff Street, New York, NY 10038, United States of America",10038,New York County,Manhattan Community Board 1,New York,New York,Cliff St & Fulton St
5096.11,40.708485,-74.002751,"295 Pearl Street, New York, NY 10038, United States of America",10038,New York County,Manhattan Community Board 1,New York,New York,Pearl St & Peck Slip
5096.12,40.70751888,-74.00108054,"45 Peck Slip, New York, NY 10038, United States of America",10038,New York County,Manhattan Community Board 1,New York,New York,Peck Slip & South St
5105.01,40.70905623,-74.01043382,"Citi Bike - Liberty St & Broadway, Liberty Street, New York, NY 10005, United States of America",10005,New York County,Manhattan Community Board 1,New York,New York,Liberty St & Broadway
5105.09,40.70858894,-74.00935482,"Liberty Street, New York, NY 10005, United States of America",10005,New York County,Manhattan,New York,New York,Liberty St & Nassau St
5114.06,40.70834698,-74.01713445,"Citi Bike - West Thames St, West Thames Street, New York, NY 10280, United States of America",10280,New York County,Manhattan Community Board 1,New York,New York,West Thames St
5137.1,40.71146364,-74.00552427,"Pace University, Beekman Street, New York, NY 10038, United States of America",10038,New York County,Manhattan Community Board 1,New York,New York,Spruce St & Nassau St
5137.1,40.71146364,-74.00552427,"Pace University, Beekman Street, New York, NY 10038, United States of America",10038,New York County,Manhattan Community Board 1,New York,New York,Spruce St & Nassau St
5145.02,40.709267,-74.013247,"Citi Bike - Albany St & Greenwich St, Albany Street, New York, NY 10006, United States of America",10006,New York County,Manhattan Community Board 1,New York,New York,Albany St & Greenwich St
5159.04,40.71173107,-73.99193043,"65-75 Pike Street, New York, NY 10002, United States of America",10002,New York County,Manhattan Community Board 3,New York,New York,Pike St & Monroe St
5159.07,40.70991807,-73.991611,"One Manhattan Square - Base, South Street, New York, NY 10038, United States of America",10038,New York County,Manhattan Community Board 3,New York,New York,South St & Pike St
5170.01,40.710681,-73.93372,"370 Stagg Street, New York, NY 11206, United States of America",11206,Kings County,Brooklyn,New York,New York,Stagg St & Morgan Ave
5175.08,40.711066,-74.009447,"Citi Bike - Fulton St & Broadway, Fulton Street, New York, NY 10038, United States of America",10038,New York County,Manhattan Community Board 1,New York,New York,Fulton St & Broadway
5184.08,40.711444,-74.014847,"Citi Bike - West St & Liberty St, West Street, New York, NY 10281, United States of America",10281,New York County,Manhattan Community Board 1,New York,New York,West St & Liberty St
5198.04,40.71076228,-73.99400398,"Citi Bike, Market Street, New York, NY 10002, United States of America",10002,New York County,Manhattan Community Board 3,New York,New York,Market St & Cherry St
5207.01,40.71273266,-74.0046073,"Brooklyn Bridge-City Hall (4,5,6,<6>), Brooklyn Bridge, New York, NY 10000, United States of America",10000,New York County,Manhattan Community Board 1,New York,New York,Centre St & Chambers St
5216.06,40.71221958,-74.0104723,"Citi Bike - Vesey St & Church St, Vesey Street, New York, NY 10281, United States of America",10281,New York County,Manhattan Community Board 1,New York,New York,Vesey St & Church St
5238.05,40.71307916,-73.99851193,"Citi Bike - Saint James Place & Oliver Street, Pearl Street, New York, NY 10278, United States of America",10278,New York County,Manhattan Community Board 3,New York,New York,St James Pl & Oliver St
5279.03,40.71494807,-74.00234482,"Thomas Paine Park, New York, NY 10007, United States of America",10007,New York County,Manhattan,New York,New York,Centre St & Worth St
5288.08,40.71334184,-74.00935516,"Chambers Streetƒ??World Trade Centerƒ??Park Placeƒ??Cortlandt Street, John Street, New York, NY 10038, United States of America",10038,New York County,Manhattan Community Board 1,New York,New York,Park Pl & Church St
5288.09,40.71473993,-74.00910627,"Citi Bike - Warren St & W Broadway, Warren Street, New York, NY 10007, United States of America",10007,New York County,Manhattan Community Board 1,New York,New York,Warren St & W Broadway
5288.12,40.71485151,-74.01122332,"85 Murray Street, New York, NY 10007, United States of America",10007,New York County,Manhattan,New York,New York,Murray St & Greenwich St
5297.02,40.7153379,-74.01658354,"Irish Hunger Memorial, Vesey Place, New York, NY 10285, United States of America",10285,New York County,Manhattan Community Board 1,New York,New York,Vesey Pl & River Terrace
5329.03,40.71754834,-74.01322069,"Tribeca Bridge, New York, NY 10282, United States of America",10282,New York County,Manhattan Community Board 1,New York,New York,West St & Chambers St
5329.08,40.71503,-74.01246,"Citi Bike - Murray St & West St, Murray Street, New York, NY 10282, United States of America",10282,New York County,Manhattan Community Board 1,New York,New York,Murray St & West St
5343.11,40.7173184,-73.9906776,"Grand Street, New York, NY 10002, United States of America",10002,New York County,Manhattan,New York,New York,Orchard St & Grand St
5359.1,40.71625008,-74.0091059,"Citi Bike - Hudson Street & Reade Street, Hudson Street, New York, NY 10014, United States of America",10014,New York County,Manhattan Community Board 1,New York,New York,Hudson St & Reade St
5359.11,40.717571,-74.005549,"Citi Bike - Leonard St & Church St, 65 Leonard Street, New York, NY 10013, United States of America",10013,New York County,Manhattan Community Board 1,New York,New York,Leonard St & Church St
5359.12,40.71703,-74.00925,"166 Duane Street, New York, NY 10013, United States of America",10013,New York County,Manhattan Community Board 1,New York,New York,Duane St & Hudson St
5368.03,40.71759895,-74.01587963,"Citi Bike - River Terrace & Warren St, New York, NY 10282, United States of America",10282,New York County,Manhattan,New York,New York,River Ter & Warren St
5382.07,40.71779818,-73.99316132,"90 Forsyth Street, New York, NY 10002, United States of America",10002,New York County,Manhattan Community Board 3,New York,New York,Forsyth St & Grand St
5391.06,40.71939226,-74.00247214,"Citi Bike - Lispenard St & Broadway, Lispenard Street, New York, NY 10013, United States of America",10013,New York County,Manhattan Community Board 1,New York,New York,Lispenard St & Broadway
5422.09,40.72028,-73.99879,"173 Lafayette Street, New York, NY 10013, United States of America",10013,New York County,Manhattan,New York,New York,Lafayette St & Grand St
5430.1,40.71979209,-74.00522389,"3 Walker Street, New York, NY 10013, United States of America",10013,New York County,Manhattan,New York,New York,6 Ave & Walker St
5430.08,40.71911552,-74.00666661,"Franklin Street, New York, NY 10013, United States of America",10013,New York County,Manhattan,New York,New York,Franklin St & W Broadway
5430.1,40.71979209,-74.00522389,"3 Walker Street, New York, NY 10013, United States of America",10013,New York County,Manhattan,New York,New York,6 Ave & Walker St
5445.02,40.72066442,-73.98517977,"164 Suffolk Street, New York, NY 10002, United States of America",10002,New York County,Manhattan Community Board 3,New York,New York,Suffolk St & Stanton St
5453.01,40.72110063,-73.9919254,"Mƒ??Finda Kalunga Garden, Rivington Street, New York, NY 10002, United States of America",10002,New York County,Manhattan Community Board 3,New York,New York,Rivington St & Chrystie St
5453.06,40.72054,-73.9949,"154 Elizabeth Street, New York, NY 10012, United States of America",10012,New York County,Manhattan,New York,New York,Kenmare St & Elizabeth St
5470.1,40.721319,-74.010065,"396 Greenwich Street, New York, NY 10013, United States of America",10013,New York County,Manhattan,New York,New York,Greenwich St & Hubert St
5470.02,40.71996118,-74.00844321,"122 Hudson Street, New York, NY 10013, United States of America",10013,New York County,Manhattan,New York,New York,N Moore St & Hudson St
5470.1,40.721319,-74.010065,"396 Greenwich Street, New York, NY 10013, United States of America",10013,New York County,Manhattan,New York,New York,Greenwich St & Hubert St
5470.12,40.72019521,-74.01030064,"385 Greenwich Street, New York, NY 10013, United States of America",10013,New York County,Manhattan,New York,New York,North Moore St & Greenwich St
5470.13,40.719888,-74.00862694,"119 Hudson Street, New York, NY 10013, United States of America",10013,New York County,Manhattan,New York,New York,Hudson St & N Moore St
5492.05,40.72210379,-73.99724901,"Petrosino Square Park, Kenmare Street, New York, NY 10012, United States of America",10012,New York County,Manhattan Community Board 2,New York,New York,Cleveland Pl & Spring St
5500.07,40.72243797,-74.00566443,"Citi Bike - 6 Ave & Canal St, Sullivan Street, New York, NY 10005, United States of America",10005,New York County,Manhattan Community Board 2,New York,New York,6 Ave & Canal St
5509.02,40.72231,-74.0106,"414 Washington Street, New York, NY 10013, United States of America",10013,New York County,Manhattan Community Board 1,New York,New York,Washington St & Laight St
5532.01,40.72362738,-73.99949601,"105 Mercer Street, New York, NY 10012, United States of America",10012,New York County,Manhattan Community Board 2,New York,New York,Mercer St & Spring St
5539.06,40.72185379,-74.00771779,"Citi Bike - Laight St & Hudson St, Laight Street, New York, NY 10013, United States of America",10013,New York County,Manhattan Community Board 1,New York,New York,Laight St & Hudson St
5553.1,40.72307749,-73.98583621,"29 Ave A, New York, NY 10009, United States of America",10009,New York County,Manhattan,New York,New York,E 2 St & Avenue A
5561.04,40.72317958,-73.99480012,"Citi Bike - Mott St & Prince St, Mott Street, New York, NY 10012, United States of America",10012,New York County,Manhattan Community Board 2,New York,New York,Mott St & Prince St
5561.06,40.72456089,-73.99565293,"Citi Bike - Lafayette St & Jersey St, Lafayette Street, New York, NY 10012, United States of America",10012,New York County,Manhattan Community Board 2,New York,New York,Lafayette St & Jersey St
5569.06,40.72494672,-74.00165856,"414 W Broadway, New York, NY 10012, United States of America",10012,New York County,Manhattan,New York,New York,W Broadway & Spring St
5578.02,40.72405549,-74.00965965,"Citi Bike - Watts St & Greenwich St, Watts Street, New York, NY 10005, United States of America",10005,New York County,Manhattan Community Board 1,New York,New York,Watts St & Greenwich St
5593.02,40.72502876,-73.99069656,"Citi Bike - East 2nd Street & 2nd Avenue, East 2nd Street, New York, NY 10012, United States of America",10012,New York County,Manhattan Community Board 3,New York,New York,E 2 St & 2 Ave
5593.04,40.7262807,-73.98978041,"Citi Bike - East 4th Street & 2nd Avenue, East 4th Street, New York, NY 10009, United States of America",10009,New York County,East Village,New York,New York,E 4 St & 2 Ave
5602.06,40.72511734,-73.99930492,"109 Prince Street, New York, NY 10012, United States of America",10012,New York County,Manhattan Community Board 2,New York,New York,Greene St & Prince St
5610.09,40.72431,-74.00473,"555 Broome Street, New York, NY 10013, United States of America",10013,New York County,Manhattan,New York,New York,6 Ave & Broome St
5626.07,40.72621788,-73.98379855,"Citi Bike - East 7th Street & Avenue A, East 7th Street, New York, NY 10009, United States of America",10009,New York County,Manhattan Community Board 3,New York,New York,E 7 St & Avenue A
5636.11,40.72743423,-73.99379025,"Citi Bike - Great Jones St, Great Jones Street, New York, NY 10012, United States of America",10012,New York County,Manhattan Community Board 2,New York,New York,Great Jones St
5636.13,40.72486122,-73.99213135,"4 East 1st Street, New York, NY 10003, United States of America",10003,New York County,Manhattan Community Board 3,New York,New York,E 1 St & Bowery
5644.05,40.726378,-74.000472,"464 West Broadway, New York, NY 10012, United States of America",10012,New York County,Manhattan Community Board 2,New York,New York,W Broadway & W Houston St
5653.12,40.72583997,-74.0076533,"292 Spring Street, New York, NY 10013, United States of America",10013,New York County,Manhattan,New York,New York,Spring St & Hudson St
5669.1,40.7284186,-73.98713956,"Citi Bike - St Marks Pl & 2 Ave, Saint Mark's Place, New York, NY 10003, United States of America",10003,New York County,Manhattan Community Board 3,New York,New York,St Marks Pl & 2 Ave
5679.05,40.72706363,-73.99662137,"New York University, Cornelia Street, New York, NY 10014, United States of America",10014,New York County,Washington Square Village,New York,New York,Mercer St & Bleecker St
5679.08,40.72615605,-73.9951019,"Le Pain Quotidien, 65 Bleecker Street, New York, NY 10012, United States of America",10012,New York County,NoHo Historic District,New York,New York,Bleecker St & Crosby St
5687.11,40.72789701,-74.00536269,"200 Varick Street, New York, NY 10014, United States of America",10014,New York County,Manhattan,New York,New York,King St & Varick St
5696.03,40.72771408,-74.01129574,"Citi Bike, Hudson River Park Esplanade, New York, NY 10282, United States of America",10282,New York County,Hudson Square,New York,New York,Pier 40 - Hudson River Park
5703.13,40.72854745,-73.98175925,"185 Avenue A, New York, NY 10009, United States of America",10009,New York County,Alphabet City,New York,New York,Ave A & E 11 St
5712.03,40.72951496,-73.9907527,"Manhattan, New York, NY, United States of America",not found,New York County,East Village,New York,New York,Cooper Square & Astor Pl
5712.12,40.72769,-73.990993,"27 Cooper Square, New York, NY 10003, United States of America",10003,New York County,Manhattan,New York,New York,E 5 St & Cooper Sq
5721.01,40.73047747,-73.99906065,"New York University, Cornelia Street, New York, NY 10014, United States of America",10014,New York County,Washington Square Village,New York,New York,Sullivan St & Washington Sq
5721.14,40.72917025,-73.99810231,"New York University, Cornelia Street, New York, NY 10014, United States of America",10014,New York County,Washington Square Village,New York,New York,LaGuardia Pl & W 3 St
5730.08,40.728846,-74.008591,"315 West Houston Street, New York, NY 10013, United States of America",10013,New York County,Manhattan,New York,New York,Greenwich St & W Houston St
5746.14,40.72953837,-73.98426726,"Citi Bike - E 11 St & 1 Ave, East 11th Street, New York, NY 10009, United States of America",10009,New York County,Manhattan Community Board 3,New York,New York,E 11 St & 1 Ave
5755.14,40.73143724,-73.99490342,"New York University, Cornelia Street, New York, NY 10014, United States of America",10014,New York County,Washington Square Village,New York,New York,University Pl & E 8 St
5763.03,40.73038599,-74.00214988,"Citi Bike - Carmine St & 6 Ave, Carmine Street, New York, NY 10014, United States of America",10014,New York County,West Village,New York,New York,Carmine St & 6 Ave
5772.05,40.73115,-74.00887,"618 Washington Street, New York, NY 10014, United States of America",10014,New York County,Manhattan,New York,New York,Morton St & Washington St
5788.13,40.73020661,-73.99102628,"Astor Place, Lafayette Street, New York, NY 10003, United States of America",10003,New York County,Manhattan Community Board 2,New York,New York,Lafayette St & E 8 St
5797.01,40.73226398,-73.99852205,"Citi Bike - MacDougal St & Washington Sq, Washington Square North, New York, NY 10014, United States of America",10014,New York County,Washington Square Village,New York,New York,MacDougal St & Washington Sq
5805.05,40.73172428,-74.00674436,"Citi Bike - Barrow St & Hudson St, Barrow Street, New York, NY 10014, United States of America",10014,New York County,West Village,New York,New York,Barrow St & Hudson St
5820.08,40.73153938,-73.98530245,"204 2nd Avenue, New York, NY 10035, United States of America",10035,New York County,Manhattan Community Board 3,New York,New York,E 13 St & 2 Ave
5847.01,40.73291553,-74.00711384,"Citi Bike - Christopher St & Greenwich St, Christopher Street, New York, NY 10014, United States of America",10014,New York County,Manhattan Community Board 2,New York,New York,Christopher St & Greenwich St
5847.06,40.73342399,-74.00851496,"667 Washington Street, New York, NY 10014, United States of America",10014,New York County,Manhattan,New York,New York,W 10 St & Washington St
5872.1,40.73275887,-73.99581671,"11 5th Avenue, New York, NY 10003, United States of America",10003,New York County,Manhattan,New York,New York,E 9 St & 5 Ave
5880.02,40.73401143,-74.00293877,"Citi bike - W 4 St & 7 Ave S, West 4th Street, New York, NY 10014, United States of America",10014,New York County,Manhattan Community Board 2,New York,New York,W 4 St & 7 Ave S
5905.14,40.734814,-73.992085,"126 University Place, New York, NY 10003, United States of America",10003,New York County,Manhattan Community Board 2,New York,New York,University Pl & E 14 St
5914.08,40.735238,-74.000271,"Citi Bike - Greenwich Avenue & Charles Street, 35 1/2 Greenwich Avenue, New York, NY 10014, United States of America",10014,New York County,Manhattan Community Board 2,New York,New York,Greenwich Ave & Charles St
5922.07,40.73535398,-74.00483091,"Citi Bike - Perry St & Bleecker St, Perry Street, New York, NY 10014, United States of America",10014,New York County,Manhattan Community Board 2,New York,New York,Perry St & Bleecker St
5922.08,40.73652889,-74.00618026,"Citi Bike - Bank St & Hudson St, Bank Street, New York, NY 10014, United States of America",10014,New York County,Manhattan Community Board 2,New York,New York,Bank St & Hudson St
5944.01,40.73564,-73.95866,"Citi Bike - Franklin St & Dupont St, Dupont Street, New York, NY 11222, United States of America",11222,Kings County,Brooklyn,New York,New York,Franklin St & Dupont St
5964.01,40.7361967,-74.00859207,"Citi Bike - Bank St & Washington St, Bank Street, New York, NY 10014, United States of America",10014,New York County,Manhattan Community Board 2,New York,New York,Bank St & Washington St
5971.09,40.73716919,-73.98122549,"Gramercy East, 301 East 22nd Street, New York, NY 10010, United States of America",10010,New York County,Manhattan Community Board 6,New York,New York,E 22 St & 2 Ave
5980.07,40.73704984,-73.99009296,"Citi Bike - East 17th Street & Broadway, East 17th Street, New York, NY 10010, United States of America",10010,New York County,Manhattan Community Board 5,New York,New York,E 17 St & Broadway
6055.08,40.73827428,-73.98751968,"Citi Bike - East 20th Street & Park Avenue, East 20th Street, New York, NY 10003, United States of America",10003,New York County,Manhattan Community Board 5,New York,New York,E 20 St & Park Ave
6072.11,40.740983,-74.001702,"14th Street, 8th Avenue, New York, NY 10011, United States of America",10011,New York County,Chelsea District,New York,New York,8 Ave & W 16 St
6072.14,40.7394482,-74.00507033,"Citi Bike - Gansevoort Street & Hudson Street, Gansevoort Street, New York, NY 10011, United States of America",10011,New York County,Manhattan Community Board 2,New York,New York,Gansevoort St & Hudson St
6079.03,40.741444,-73.975361,"Citi Bike - 1st Avenue & East 30th Street, 1st Avenue, New York, NY 10016, United States of America",10016,New York County,Manhattan Community Board 6,New York,New York,1 Ave & E 30 St
6089.07,40.74025878,-73.98409214,"Citi Bike - Lexington Avenue & East 24th Street, Lexington Avenue, New York, NY 10037, United States of America",10037,New York County,Manhattan Community Board 6,New York,New York,Lexington Ave & E 24 St
6098.1,40.73988841,-73.98958594,"East 21st Street, New York, NY 10010, United States of America",10010,New York County,Manhattan,New York,New York,Broadway & E 21 St
6098.12,40.73866091,-73.98987293,"890 Broadway, New York, NY 10003, United States of America",10003,New York County,Manhattan,New York,New York,Broadway & E 19 St
6115.06,40.74005709,-74.00527418,"355 West 13th Street, New York, NY 10014, United States of America",10014,New York County,Manhattan,New York,New York,Hudson St & W 13 St
6115.09,40.74275383,-74.00747359,"The High Line, Coach Passage, New York, NY 10199, United States of America",10199,New York County,Manhattan Community Board 4,New York,New York,W 15 St & 10 Ave
6131.12,40.74268473,-73.98671329,"Citi Bike - Madison Ave & E 26 St, Madison Avenue, New York, NY 10037, United States of America",10037,New York County,Manhattan Community Board 5,New York,New York,Madison Ave & E 26 St
6140.05,40.74173969,-73.99415556,"Citi Bike - West 21st Street & 6th Avenue, West 21st Street, New York, NY 10011, United States of America",10011,New York County,Chelsea District,New York,New York,W 21 St & 6 Ave
6148.02,40.74177603,-74.00149746,"Citi Bike - West 17th Street & 8th Avenue, West 17th Street, New York, NY 10011, United States of America",10011,New York County,Chelsea District,New York,New York,W 17 St & 8 Ave
6157.04,40.7419816,-74.0083158,"53 10th Avenue, New York, NY 10014, United States of America",10014,New York County,Manhattan,New York,New York,10 Ave & W 14 St
6173.08,40.74286877,-73.98918629,"16 Madison Square West, New York, NY 10010, United States of America",10010,New York County,Manhattan,New York,New York,Broadway & W 25 St
6182.02,40.74238787,-73.99726235,"Citi Bike - West 20th Street & 7th Avenue, West 20th Street, New York, NY 10011, United States of America",10011,New York County,Chelsea District,New York,New York,W 20 St & 7 Ave
6190.08,40.74317449,-74.00366443,"Citi Bike - 9th Avenue & West 18th Street, 9th Avenue, New York, NY 10019, United States of America",10019,New York County,Chelsea District,New York,New York,9 Ave & W 18 St
6206.08,40.74444921,-73.98303529,"Citi Bike - East 30th Street & Park Avenue South, East 30th Street, New York, NY 10016, United States of America",10016,New York County,Manhattan Community Board 5,New York,New York,E 30 St & Park Ave S
6212.08,40.7449067,-73.9534573,"47-18 Vernon Boulevard, New York, NY 11101, United States of America",11101,Queens County,Hunters Point,New York,New York,Vernon Blvd & 47 Rd
6224.03,40.74475148,-73.99915362,"Citi Bike - West 22nd Street & 8th Avenue, West 22nd Street, New York, NY 10011, United States of America",10011,New York County,Chelsea District,New York,New York,W 22 St & 8 Ave
6224.06,40.74591073,-73.9980711,"CVS Pharmacy, 272 8th Avenue, New York, NY 10011, United States of America",10011,New York County,Manhattan,New York,New York,8 Ave & W 24 St
6233.05,40.74334935,-74.00681753,"Citi Bike - W 16 St & The High Line, West 16th Street, New York, NY 10011, United States of America",10011,New York County,Chelsea District,New York,New York,W 16 St & The High Line
6239.08,40.743943,-73.979661,"Citi Bike - East 31st Street & 3rd Avenue, East 31st Street, New York, NY 10016, United States of America",10016,New York County,Manhattan Community Board 6,New York,New York,E 31 St & 3 Ave
6247.06,40.746647,-73.993915,"West 27th Street, New York, NY 10001, United States of America",10001,New York County,Chelsea District,New York,New York,W 27 St & 7 Ave
6257.03,40.74487634,-73.99529885,"Citi Bike - West 24th Street & 7th Avenue, West 24th Street, New York, NY 10011, United States of America",10011,New York County,Chelsea District,New York,New York,W 24 St & 7 Ave
6289.06,40.7462009,-73.98855723,"Citi Bike - Broadway & West 29th Street, Broadway, New York, NY 10019, United States of America",10019,New York County,Midtown South,New York,New York,Broadway & W 29 St
6306.01,40.745686,-74.005141,"415 West 20th Street, New York, NY 10011, United States of America",10011,New York County,Chelsea District,New York,New York,W 20 St & 10 Ave
6306.06,40.74691959,-74.00451887,"Citi Bike - W 22 St & 10 Ave, West 22nd Street, New York, NY 10011, United States of America",10011,New York County,Chelsea District,New York,New York,W 22 St & 10 Ave
6364.1,40.74964,-73.98805,"34th Streetƒ??Herald Square (N,Q,R,W), Broadway, New York, NY 10019, United States of America",10019,New York County,Manhattan Community Board 5,New York,New York,6 Ave & W 34 St
6364.07,40.74901271,-73.98848395,"34th Street - Herald Square (B,D,F,M), West 33rd Street, New York, NY 10001, United States of America",10001,New York County,Herald Square,New York,New York,6 Ave & W 33 St
6389.09,40.74949855,-73.97729203,"Citi Bike, East 39th Street, New York, NY 10016, United States of America",10016,New York County,Manhattan Community Board 6,New York,New York,E 39 St & Lexington Ave
6425.04,40.751396,-74.005226,"245 11th Avenue, New York, NY 10001, United States of America",10001,New York County,Manhattan,New York,New York,11 Ave & W 27 St
6441.01,40.75097711,-73.98765428,"Citi Bike - Broadway & West 36th Street, Broadway Boulevard, New York, NY 10120, United States of America",10120,New York County,Garment District,New York,New York,Broadway & W 36 St
6450.05,40.75058535,-73.99468482,"Pennsylvania Station, 4 Pennsylvania Plaza, New York, NY 10119, United States of America",10119,New York County,Manhattan Community Board 4,New York,New York,8 Ave & W 31 St
6450.12,40.751551,-73.993934,"34th Street - Penn Station, West 33rd Street, New York, NY 10001, United States of America",10001,New York County,Chelsea District,New York,New York,8 Ave & W 33 St
6459.04,40.75066386,-74.00176802,"Chelsea Park Track, West 28th Street, New York, NY 10001, United States of America",10001,New York County,Chelsea,New York,New York,10 Ave & W 28 St
6459.07,40.752694,-74.002353,"The High Line, Coach Passage, New York, NY 10199, United States of America",10199,New York County,Manhattan Community Board 4,New York,New York,W 30 St & 10 Ave
6474.02,40.752269,-73.982079,"Knox Hat Building, West 40th Street, New York, NY 10018, United States of America",10018,New York County,Manhattan Community Board 5,New York,New York,W 40 St & 5 Ave
6483.06,40.752149,-73.989539,"164 West 36th Street, New York, NY 10018, United States of America",10018,New York County,Manhattan,New York,New York,W 36 St & 7 Ave
6492.04,40.75377337,-73.999376,"Citi Bike ƒ?? W 33rd Street & 10th Avenue, West 33rd Street, New York, NY 10001, United States of America",10001,New York County,Manhattan Community Board 4,New York,New York,W 33 St & 10 Ave
6498.1,40.75323098,-73.97032517,"Citi bike - East 47th Street & 2nd Avenue, East 47th Street, New York, NY 10017, United States of America",10017,New York County,Manhattan Community Board 6,New York,New York,E 47 St & 2 Ave
6517.08,40.75492,-73.98455,"1095 Avenue Of The Americas, 1095 6th Avenue, New York, NY 10019, United States of America",10019,New York County,Manhattan Community Board 5,New York,New York,W 42 St & 6 Ave
6526.01,40.75276209,-73.99280459,"West 35th Street, New York, NY 10001, United States of America",10001,New York County,Manhattan,New York,New York,W 35 St & 8 Ave
6526.05,40.75461,-73.99177,"2 Bros. Pizza, 557 8th Avenue, New York, NY 10018, United States of America",10018,New York County,Manhattan Community Board 4,New York,New York,8 Ave & W 38 St
6535.04,40.755167,-74.000599,"50 Hudson Yards, 50 West 34th Street, New York, NY 10001, United States of America",10001,New York County,Manhattan Community Board 4,New York,New York,W 34 St & Hudson Blvd E
6551.02,40.75500254,-73.98014437,"530 5th Avenue, New York, NY 10036, United States of America",10036,New York County,Manhattan Community Board 5,New York,New York,W 44 St & 5 Ave
6560.01,40.75513557,-73.98658032,"Times Squareƒ??42nd Street/Port Authority Bus Terminal, Broadway, New York, NY 10036, United States of America",10036,New York County,Manhattan Community Board 5,New York,New York,Broadway & W 41 St
6560.14,40.754818,-73.988154,"200 West 40th Street, New York, NY 10018, United States of America",10018,New York County,Manhattan Community Board 5,New York,New York,W 40 St & 7 Ave
6575.03,40.755293,-73.967641,"306 East 51st Street, New York, NY 10022, United States of America",10022,New York County,Manhattan Community Board 6,New York,New York,E 51 St & 2 Ave
6578.01,40.75594159,-74.0021163,"Citi Bike - West 34th Street & 11th Avenue, West 34th Street, New York, NY 10199, United States of America",10199,New York County,Hudson Yards,New York,New York,W 34 St & 11 Ave
6584.12,40.75510267,-73.97498696,"Grand Central Terminal, 245 Park Avenue, New York, NY 10017, United States of America",10017,New York County,Midtown East,New York,New York,E 47 St & Park Ave
6593.15,40.756951,-73.982631,"Americas Tower, 1177 6th Avenue, New York, NY 10019, United States of America",10019,New York County,Manhattan Community Board 5,New York,New York,6 Ave & W 45 St
6602.03,40.75640548,-73.9900262,"Citi Bike - West 41st Street & 8th Avenue, West 41st Street, New York, NY 10036, United States of America",10036,New York County,Theater District,New York,New York,W 41 St & 8 Ave
6602.05,40.7575699,-73.99098507,"Port Authority Bus Terminal, 625 8th Avenue, New York, NY 10018, United States of America",10018,New York County,Manhattan Community Board 4,New York,New York,W 42 St & 8 Ave
6611.02,40.75660359,-73.9979009,"485 10th Avenue, New York, NY 10018, United States of America",10018,New York County,Manhattan,New York,New York,W 37 St & 10 Ave
6626.11,40.75776935,-73.9792943,"Drug Rehab and Alcohol Detox Center, 22 West 48th Street, New York, NY 10036, United States of America",10036,New York County,Manhattan,New York,New York,W 48 St &  Rockefeller Plaza
6644.07,40.75898481,-73.99379969,"427 West 42nd Street, New York, NY 10036, United States of America",10036,New York County,Manhattan Community Board 4,New York,New York,W 42 St & Dyer Ave
6659.1,40.757334,-73.974235,"Grand Central Terminal, 39 East 50th Street, New York, NY 10017, United States of America",10017,New York County,Midtown East,New York,New York,E 50 St & Park Ave
6659.09,40.75863,-73.97513,"Look Building, 488 Madison Avenue, New York, NY 10022, United States of America",10022,New York County,Manhattan Community Board 5,New York,New York,Madison Av & E 51 St
6659.1,40.757334,-73.974235,"Grand Central Terminal, 39 East 50th Street, New York, NY 10017, United States of America",10017,New York County,Midtown East,New York,New York,E 50 St & Park Ave
6667.04,40.758397,-73.98255,"Rockefeller Center, 45 Rockefeller Plaza, New York, NY 10111, United States of America",10111,New York County,Manhattan Community Board 5,New York,New York,W 47 St & 6 Ave
6676.02,40.75929124,-73.98859651,"Citi Bike - West 45th Street & 8th Avenue, West 45th Street, New York, NY 10036, United States of America",10036,New York County,Manhattan Community Board 4,New York,New York,W 45 St & 8 Ave
6708.04,40.7601774,-73.98486793,"Broadway, New York, NY 10019, United States of America",10019,New York County,Manhattan,New York,New York,Broadway & W 48 St
6711.13,40.75905795,-73.91897544,"31-90 Steinway Street, New York, NY 11103, United States of America",11103,Queens County,Queens,New York,New York,Steinway St & Broadway
6726.01,40.76030096,-73.99884222,"Citi Bike - 11th Avenue & West 41st Street, 11th Avenue, New York, NY 10018, United States of America",10018,New York County,Hell's Kitchen,New York,New York,11 Ave & W 41 St
6740.1,40.7606597,-73.98042047,"Rockefeller Center, 45 Rockefeller Plaza, New York, NY 10111, United States of America",10111,New York County,Manhattan Community Board 5,New York,New York,W 51 St & 6 Ave
6740.01,40.76132983,-73.97982001,"Manhattan, New York, NY, United States of America",not found,New York County,Theater District,New York,New York,W 52 St & 6 Ave
6747.07,40.76171228,-73.98655102,"810 8th Avenue, New York, NY 10019, United States of America",10019,New York County,Manhattan,New York,New York,8 Ave & W 49 St
6753.08,40.7612274,-73.96094022,"1123 1st Avenue, New York, NY 10065, United States of America",10065,New York County,Manhattan Community Board 8,New York,New York,1 Ave & E 62 St
6756.05,40.762009,-73.996975,"Gotham West, West 44th Street, New York, NY 10036, United States of America",10036,New York County,Manhattan Community Board 4,New York,New York,W 44 St & 11 Ave
6762.02,40.76095756,-73.96724467,"Citi Bike - East 58th Street & 3rd Avenue, East 58th Street, New York, NY 10022, United States of America",10022,New York County,Manhattan Community Board 6,New York,New York,E 58 St & 3 Ave
6765.01,40.760875,-74.002777,"Dero, Hudson River Park Esplanade, New York, NY 10199, United States of America",10199,New York County,Hudson Yards,New York,New York,12 Ave & W 40 St
6779.04,40.76228826,-73.98336183,"50th Street, West 51st Street, New York, NY 10019, United States of America",10019,New York County,Manhattan Community Board 5,New York,New York,Broadway & W 51 St
6779.05,40.76344058,-73.98268129,"Citi Bike - Broadway & West 53rd Street, West 53rd Street, New York, NY 10019, United States of America",10019,New York County,Manhattan Community Board 5,New York,New York,Broadway & W 53 St
6801.01,40.76350532,-73.97109243,"35 East 59th Street, New York, NY 10022, United States of America",10022,New York County,Manhattan,New York,New York,E 59 St & Madison Ave
6809.07,40.76340613,-73.97722479,"Citi Bike - West 56th Street & 6th Avenue, West 56th Street, New York, NY 10019, United States of America",10019,New York County,Manhattan Community Board 5,New York,New York,W 56 St & 6 Ave
6822.09,40.76500525,-73.95818491,"1246 1st Avenue, New York, NY 10065, United States of America",10065,New York County,Manhattan,New York,New York,1 Ave & E 68 St
6839.1,40.7643971,-73.97371465,"Citi Bike - Grand Army Plaza & Central Park South, Grand Army Plaza, New York, NY 10153, United States of America",10153,New York County,Manhattan Community Board 5,New York,New York,Grand Army Plaza & Central Park S
6839.1,40.7643971,-73.97371465,"Citi Bike - Grand Army Plaza & Central Park South, Grand Army Plaza, New York, NY 10153, United States of America",10153,New York County,Manhattan Community Board 5,New York,New York,Grand Army Plaza & Central Park S
6854.05,40.76360468,-73.98917958,"West 50th Street/9th Avenue, New York, NY 10019, United States of America",10019,New York County,Manhattan,New York,New York,W 50 St & 9 Ave
6876.04,40.76590936,-73.97634151,"100 Central Park South, New York, NY 10019, United States of America",10019,New York County,Manhattan,New York,New York,Central Park S & 6 Ave
6884.03,40.76595918,-73.98313522,"946 8th Avenue, New York, NY 10019, United States of America",10019,New York County,Manhattan,New York,New York,W 56 St & 8 Ave
6890.06,40.7647342,-73.9919436,"500 West 50th Street, New York, NY 10019, United States of America",10019,New York County,Manhattan,New York,New York,W 50 St & 10 Ave
6904.06,40.766368,-73.971518,"812 5th Avenue, New York, NY 10065, United States of America",10065,New York County,Manhattan,New York,New York,5 Ave & E 63 St
6925.09,40.76876203,-73.95840794,"72nd Street, 2nd Avenue, New York, NY 10035, United States of America",10035,New York County,Manhattan Community Board 8,New York,New York,2 Ave & E 72 St
6926.01,40.76727216,-73.99392888,"Citi Bike - W 52 St / 11 Ave, West 52nd Street, New York, NY 10019, United States of America",10019,New York County,Manhattan Community Board 4,New York,New York,W 52 St & 11 Ave
6948.1,40.76695317,-73.98169333,"Citi Bike - Broadway & West 58th Street, Broadway, New York, NY 10019, United States of America",10019,New York County,Manhattan Community Board 5,New York,New York,Broadway & W 58 St
6948.1,40.76695317,-73.98169333,"Citi Bike - Broadway & West 58th Street, Broadway, New York, NY 10019, United States of America",10019,New York County,Manhattan Community Board 5,New York,New York,Broadway & W 58 St
6955.01,40.768254,-73.988639,"455 West 56th Street, New York, NY 10019, United States of America",10019,New York County,Hell's Kitchen,New York,New York,W 56 St & 10 Ave
6955.05,40.768333,-73.992573,"560 West 54th Street, New York, NY 10019, United States of America",10019,New York County,Manhattan Community Board 4,New York,New York,W 54 St & 11 Ave
7014.12,40.7700301,-73.98196846,"1870 Broadway, New York, NY 10023, United States of America",10023,New York County,Manhattan,New York,New York,Broadway & W 61 St
7023.04,40.770513,-73.988038,"John Jay College of Criminal Justice, 11th Avenue, New York, NY 10018, United States of America",10018,New York County,Manhattan Community Board 4,New York,New York,W 59 St & 10 Ave
7059.01,40.77149671,-73.99046034,"John Jay College of Criminal Justice, 11th Avenue, New York, NY 10018, United States of America",10018,New York County,Manhattan Community Board 4,New York,New York,11 Ave & W 59 St
7079.06,40.7734066,-73.97782542,"77 Central Park West, New York, NY 10023, United States of America",10023,New York County,Manhattan,New York,New York,Central Park West & W 68 St
7116.04,40.77492513,-73.98266566,"Apple Store, 1981 Broadway, New York, NY 10023, United States of America",10023,New York County,Manhattan,New York,New York,W 67 St & Broadway
7183.03,40.77750703,-73.98888588,"423 West 67th Street, New York, NY 10069, United States of America",10069,New York County,Manhattan,New York,New York,Riverside Blvd & W 67 St
7188.13,40.7781314,-73.96069399,"Public School 6, 45 East 81st Street, New York, NY 10028, United States of America",10028,New York County,Manhattan Community Board 8,New York,New York,Madison Ave & E 82 St
7207.08,40.77748046,-73.98288594,"201 West 70th Street, New York, NY 10023, United States of America",10023,New York County,Manhattan,New York,New York,W 70 St & Amsterdam Ave
7281.09,40.78018397,-73.97728533,"104 West 76th Street, New York, NY 10023, United States of America",10023,New York County,Not found,New York,New York,W 76 St & Columbus Ave
7288.04,40.78057799,-73.98562431,"2 Riverside Drive, New York, NY 10023, United States of America",10023,New York County,Manhattan,New York,New York,Riverside Dr & W 72 St
7311.02,40.7829391,-73.9786517,"Duane Reade, 380 Amsterdam Avenue, New York, NY 10024, United States of America",10024,New York County,Manhattan Community Board 7,New York,New York,Amsterdam Ave & W 79 St
7360.1,40.78524672,-73.97667321,"465 Amsterdam Avenue, New York, NY 10024, United States of America",10024,New York County,Manhattan Community Board 7,New York,New York,Amsterdam Ave & W 82 St
7409.08,40.7867947,-73.977112,"210 West 84th Street, New York, NY 10024, United States of America",10024,New York County,Manhattan,New York,New York,W 84 St & Broadway
7450.05,40.7949879,-73.9333349,"Citi Bike - Pleasant Av / E 116 St, Pleasant Avenue, New York, NY 10035, United States of America",10035,New York County,East Harlem,New York,New York,Pleasant Ave & E 116 St
7520.07,40.7919557,-73.968087,"715 Columbus Avenue, New York, NY 10025, United States of America",10025,New York County,Manhattan,New York,New York,Columbus Ave & W 95 St
7524.16,40.79313481,-73.97700369,"Citi Bike - Riverside Drive & West 92nd Street, Riverside Drive, New York, NY 10024, United States of America",10024,New York County,Manhattan,New York,New York,Riverside Dr & W 91 St
7538.14,40.795,-73.9645,"55 West 100th Street, New York, NY 10025, United States of America",10025,New York County,Bloomingdale,New York,New York,W 100 St & Manhattan Ave
7596.1,40.79747,-73.93504,"P.S. 155 Playground, East 118th Street, New York, NY 10035, United States of America",10035,New York County,East Harlem,New York,New York,E 118 St & 1 Ave
7606.01,40.7981856,-73.9605909,"New York Cancer Hospital, 455 Central Park West, New York, NY 10025, United States of America",10025,New York County,Bloomingdale,New York,New York,W 106 St & Central Park West
7610.13,40.79904139,-73.9664948,"154 West 104th Street, New York, NY 10025, United States of America",10025,New York County,Bloomingdale,New York,New York,W 104 St & Amsterdam Ave
7617.07,40.799484,-73.955613,"Central Park Outer Loop, New York, NY 10026, United States of America",10026,New York County,Not found,New York,New York,Central Park North & Adam Clayton Powell Blvd
7650.05,40.8021174,-73.96818053,"949 West End Avenue, New York, NY 10025, United States of America",10025,New York County,Manhattan,New York,New York,West End Ave & W 107 St
7692.11,40.8067581,-73.9607082,"Citi Bike, West 116th Street, New York, NY 10027, United States of America",10027,New York County,Manhattan Community Board 9,New York,New York,W 116 St & Amsterdam Ave
7701.21,40.80722,-73.9418,"2042 5th Avenue, New York, NY 10027, United States of America",10027,New York County,Manhattan Community Board 10,New York,New York,5 Ave & W 126 St
7713.11,40.8082,-73.9641,"Halal Cart, West 116th Street, New York, NY 10027, United States of America",10027,New York County,Manhattan Community Board 9,New York,New York,W 116 St & Broadway
7814.01,40.813539,-73.94521,"2244 Adam Clayton Powell Jr. Boulevard, New York, NY 10027, United States of America",10027,New York County,Manhattan,New York,New York,Adam Clayton Powell Blvd & W 132 St
7915.11,40.820681,-73.945144,"127 Edgecombe Avenue, New York, NY 10030, United States of America",10030,New York County,Not found,New York,New York,Edgecombe Ave & W 141 St
7922.01,40.820578,-73.888271,"924 Faile Street, New York, NY 10474, United States of America",10474,Bronx County,Bronx County,New York,New York,Faile St & Garrison Ave
7937.15,40.821294,-73.947868,"The City College of New York, 160 Convent Avenue, New York, NY 10031, United States of America",10031,New York County,Manhattan Community Board 9,New York,New York,St. Nicholas Terrace & Convent Ave
7942.21,40.823168,-73.955857,"610 Riverside Drive, New York, NY 10031, United States of America",10031,New York County,Manhattan,New York,New York,Riverside Dr & W 138 St
8013.07,40.827212,-73.942722,"795 St Nicholas Avenue, New York, NY 10031, United States of America",10031,New York County,Manhattan,New York,New York,St Nicholas Ave & W 150 St
8108.02,40.832164,-73.949702,"762 Riverside Drive, New York, NY 10031, United States of America",10031,New York County,Manhattan,New York,New York,Riverside Dr & W 153 St
8123.02,40.83299,-73.94592,"3741 Broadway, New York, NY 10032, United States of America",10032,New York County,Manhattan Community Board 12,New York,New York,Broadway & W 155 St
8157.06,40.835775,-73.9434,"3834 Broadway, New York, NY 10032, United States of America",10032,New York County,Manhattan,New York,New York,Broadway & W 160 St
8213.01,40.840484,-73.917946,"Wendy's, 19 West 170th Street, New York, NY 10452, United States of America",10452,Bronx County,Bronx,New York,New York,Plaza Dr & W 170 St
8226.07,40.84210236,-73.94223958,"William Black Building, 650 West 168th Street, New York, NY 10032, United States of America",10032,New York County,Manhattan Community Board 12,New York,New York,W 168th S & Fort Washington Ave
8299.03,40.846052,-73.937648,"619 West 175th Street, New York, NY 10033, United States of America",10033,New York County,Manhattan,New York,New York,Wadsworth Ave & W 175 St
8320.01,40.84522,-73.940493,"300 Fort Washington Avenue, New York, NY 10032, United States of America",10032,New York County,Manhattan Community Board 12,New York,New York,Fort Washington Ave & W 173 St
8358.1,40.848282,-73.941343,"1 Cabrini Boulevard, New York, NY 10033, United States of America",10033,New York County,Manhattan Community Board 12,New York,New York,Cabrini Blvd & W 177 St
8358.03,40.849972,-73.938423,"725 West 180th Street, New York, NY 10033, United States of America",10033,New York County,Manhattan Community Board 12,New York,New York,W 180 St & Ft Washington Ave
8358.1,40.848282,-73.941343,"1 Cabrini Boulevard, New York, NY 10033, United States of America",10033,New York County,Manhattan Community Board 12,New York,New York,Cabrini Blvd & W 177 St
8381.04,40.85168,-73.94186,"Lafayette Plaza, New York, NY 10033, United States of America",10033,New York County,Hudson Heights,New York,New York,W 181 St & Riverside Dr
HB101,40.73593758,-74.03030455,"60 Observer Highway, Hoboken, NJ 07030, United States of America",7030,Hudson County,Not found,Hoboken,New Jersey,Hoboken Terminal - Hudson St & Hudson Pl
HB102,40.73606766,-74.02912706,"81 River Street, Hoboken, NJ 07030, United States of America",7030,Hudson County,Hoboken,Hoboken,New Jersey,Hoboken Terminal - River St & Hudson Pl
HB103,40.736982,-74.027781,"Hoboken First World War memorial, Sinatra Drive, Hoboken, NJ 07030, United States of America",7030,Hudson County,Hoboken,Hoboken,New Jersey,South Waterfront Walkway - Sinatra Dr & 1 St
HB105,40.73736,-74.03097,"Hoboken City Hall, Hoboken, NJ 07030, United States of America",7030,Hudson County,Hoboken,Hoboken,New Jersey,City Hall - Washington St & 1 St
HB201,40.750604,-74.02402,"1125 Maxwell Lane, Hoboken, NJ 07030, United States of America",7030,Hudson County,Hoboken,Hoboken,New Jersey,12 St & Sinatra Dr N
HB202,40.75296063,-74.02435273,"The Sovereign, 14th Street, Hoboken, NJ 07030, United States of America",7030,Hudson County,Hoboken,Hoboken,New Jersey,14 St Ferry - 14 St & Shipyard Ln
HB203,40.75453,-74.02658,"15th Street, Hoboken, NJ 07086, United States of America",7086,Hudson County,Not found,Hoboken,New Jersey,Bloomfield St & 15 St
HB301,40.74225798,-74.03511107,"331 Grand Street, Hoboken, NJ 07030, United States of America",7030,Hudson County,Hoboken,Hoboken,New Jersey,4 St & Grand St
HB302,40.74439783,-74.03450087,"601 Grand St, Hoboken, NJ 07030, United States of America",7030,Hudson County,Hoboken,Hoboken,New Jersey,6 St & Grand St
HB303,40.74542,-74.03332,"127 7th St, Hoboken, NJ 07030, United States of America",7030,Hudson County,Hoboken,Hoboken,New Jersey,Clinton St & 7 St
HB304,40.74641265,-74.03797701,"Hoboken Catholic Academy, 555 7th Street, Hoboken, NJ 07030, United States of America",7030,Hudson County,Not found,Hoboken,New Jersey,7 St & Monroe St
HB305,40.747907,-74.038412,"816 Jackson Street, Hoboken, NJ 07030, United States of America",7030,Hudson County,Hoboken,Hoboken,New Jersey,9 St HBLR - Jackson St & 8 St
HB401,40.737551,-74.041664,"58 Jackson Street, Hoboken, NJ 07030, United States of America",7030,Hudson County,Hoboken,Hoboken,New Jersey,Southwest Park - Jackson St & Observer Hwy
HB402,40.73879,-74.0393,"92 Madison Street, Hoboken, NJ 07030, United States of America",7030,Hudson County,Hoboken,Hoboken,New Jersey,Madison St & 1 St
HB404,40.74313994,-74.04004097,"332 Jackson Street, Hoboken, NJ 07030, United States of America",7030,Hudson County,Hoboken,Hoboken,New Jersey,Mama Johnson Field - 4 St & Jackson St
HB407,40.73981372,-74.03690413,"412 2nd St, Hoboken, NJ 07030, United States of America",7030,Hudson County,Hoboken,Hoboken,New Jersey,Adams St & 2 St
HB408,40.740802,-74.042521,"700 1st Street, Hoboken, NJ 07030, United States of America",7030,Hudson County,Hoboken,Hoboken,New Jersey,Marshall St & 2 St
HB409,40.73743,-74.03571,"82 Clinton Street, Hoboken, NJ 07030, United States of America",7030,Hudson County,Hoboken,Hoboken,New Jersey,Clinton St & Newark St
HB501,40.748161,-74.032453,"901 Clinton St, Hoboken, NJ 07030, United States of America",7030,Hudson County,Hoboken,Hoboken,New Jersey,Columbus Park - Clinton St & 9 St
HB502,40.74998491,-74.02715027,"PromptMD Family Practice, 1122 Washington St, Hoboken, NJ 07030, United States of America",7030,Hudson County,Hoboken,Hoboken,New Jersey,11 St & Washington St
HB503,40.749943,-74.035865,"ShopRite, 900 Madison Street, Hoboken, NJ 07030, United States of America",7030,Hudson County,Not found,Hoboken,New Jersey,Madison St & 10 St
HB505,40.751867,-74.030377,"1132 Willow Avenue, Hoboken, NJ 07030, United States of America",7030,Hudson County,Hoboken,Hoboken,New Jersey,Willow Ave & 12 St
HB506,40.75409,-74.0316,"1396 Grand Street, Hoboken, NJ 07030, United States of America",7030,Hudson County,Not found,Hoboken,New Jersey,Grand St & 14 St
HB507,40.75091553,-74.03354064,"1100 Adams Street, Hoboken, NJ 07030, United States of America",7030,Hudson County,Hoboken,Hoboken,New Jersey,Adams St & 11 St
HB601,40.742659,-74.032233,"500 Park Ave, Hoboken, NJ 07030, United States of America",7030,Hudson County,Hoboken,Hoboken,New Jersey,Church Sq Park - 5 St & Park Ave
HB602,40.74313283,-74.02698867,"Stevens Institute of Technology, Castle Point Terrace, Hoboken, NJ 07030, United States of America",7030,Hudson County,Not found,Hoboken,New Jersey,Stevens - River Ter & 6 St
HB603,40.74598388,-74.02819902,"SMT Center, 731 Washington Street, Hoboken, NJ 07030, United States of America",7030,Hudson County,Hoboken,Hoboken,New Jersey,8 St & Washington St
HB607,40.74097261,-74.02860336,"Saints Peter and Paul RC Church, 404 Hudson Street, Hoboken, NJ 07030, United States of America",7030,Hudson County,Hoboken,Hoboken,New Jersey,Hudson St & 4 St
HB608,40.73915273,-74.03308198,"201 2nd Street, Hoboken, NJ 07030, United States of America",7030,Hudson County,Not found,Hoboken,New Jersey,2 St & Park Ave
JC002,40.714145,-74.033552,"70 Hudson Street, Jersey City, NJ 07302, United States of America",7302,Hudson County,Colgate Center,Jersey City,New Jersey,Paulus Hook
JC003,40.7177325,-74.043845,"Grove Street Cycle Track, Jersey City, NJ 07302, United States of America",7302,Hudson County,Jersey City,Jersey City,New Jersey,City Hall
JC005,40.719586,-74.043117,"Christopher Columbus Drive, Jersey City, NJ 07302, United States of America",7302,Hudson County,Jersey City,Jersey City,New Jersey,Grove St PATH
JC006,40.7211236,-74.03805095,"110 1st Street, Jersey City, NJ 07302, United States of America",7302,Hudson County,Jersey City,Jersey City,New Jersey,Warren St
JC008,40.7287448,-74.0321082,"80 River Drive South, Jersey City, NJ 07310, United States of America",7310,Hudson County,Jersey City,Jersey City,New Jersey,Newport Pkwy
JC009,40.72759597,-74.04424731,"232 Pavonia Avenue, Jersey City, NJ 07302, United States of America",7302,Hudson County,Jersey City,Jersey City,New Jersey,Hamilton Park
JC011,40.71653978,-74.04963791,"Jersey City Medical Center, 355 Grand Street, Jersey City, NJ 07302, United States of America",7302,Hudson County,Not found,Jersey City,New Jersey,JC Medical Center
JC013,40.714584,-74.042817,"St Peters Field, Marin Boulevard, Jersey City, NJ 07302, United States of America",7302,Hudson County,Downtown Jersey City,Jersey City,New Jersey,Marin Light Rail
JC014,40.718355,-74.038914,"Citi Bike, Christopher Columbus Drive, Jersey City, NJ 07302, United States of America",7302,Hudson County,Downtown Jersey City,Jersey City,New Jersey,Columbus Drive
JC018,40.734961,-74.059503,"Jersey City Public Library, Five Corners Branch, 678 Newark Avenue, Jersey City, NJ 07306, United States of America",7306,Hudson County,Indian Square,Jersey City,New Jersey,5 Corners Library
JC019,40.7311689,-74.0575736,"267 Baldwin Avenue, Jersey City, NJ 07306, United States of America",7306,Hudson County,Jersey City,Jersey City,New Jersey,Hilltop
JC020,40.7236589,-74.0641943,"Baldwin Avenue at Montgomery Street, Baldwin Avenue, Jersey City, NJ 07306, United States of America",7306,Hudson County,Jersey City,Jersey City,New Jersey,Baldwin at Montgomery
JC022,40.7376037,-74.0524783,"77 Jefferson Avenue, Jersey City, NJ 07306, United States of America",7306,Hudson County,Not found,Jersey City,New Jersey,Oakland Ave
JC023,40.7241765,-74.0506564,"303 Newark Avenue, Jersey City, NJ 07302, United States of America",7302,Hudson County,Jersey City,Jersey City,New Jersey,Brunswick St
JC024,40.742677,-74.051789,"Central Avenue at Manhattan Avenue, Central Avenue, Jersey City, NJ 07307, United States of America",7307,Hudson County,Jersey City,Jersey City,New Jersey,Pershing Field
JC027,40.725289,-74.045572,"617 Jersey Avenue, Jersey City, NJ 07302, United States of America",7302,Hudson County,Jersey City,Jersey City,New Jersey,Jersey & 6th St
JC032,40.721525,-74.046305,"201 Newark Avenue, Jersey City, NJ 07302, United States of America",7302,Hudson County,Jersey City,Jersey City,New Jersey,Newark Ave
JC034,40.73478582,-74.05044364,"4 Beacon Avenue, Jersey City, NJ 07306, United States of America",7306,Hudson County,Not found,Jersey City,New Jersey,Christ Hospital
JC035,40.71848892,-74.04772663,"Jersey City Free Public Library, 472 Jersey Avenue, Jersey City, NJ 07302, United States of America",7302,Hudson County,Not found,Jersey City,New Jersey,Van Vorst Park
JC038,40.712774,-74.036486,"Clermont Cove, 1 Greene Street, Jersey City, NJ 07302, United States of America",7302,Hudson County,Colgate Center,Jersey City,New Jersey,Essex Light Rail
JC051,40.718211,-74.083639,"333 Union Street, Jersey City, NJ 07304, United States of America",7304,Hudson County,Not found,Jersey City,New Jersey,Union St
JC052,40.711242,-74.055701,"Liberty State Park Park-Ride, Communipaw Avenue, Jersey City, NJ 07302, United States of America",7302,Hudson County,Not found,Jersey City,New Jersey,Liberty Light Rail
JC053,40.724605,-74.078406,"151 Kensington Avenue, Jersey City, NJ 07304, United States of America",7304,Hudson County,Jersey City,Jersey City,New Jersey,Lincoln Park
JC055,40.72533993,-74.06762213,"Foley Place, Jersey City, NJ 07306, United States of America",7306,Hudson County,Jersey City,Jersey City,New Jersey,McGinley Square
JC056,40.730897,-74.063913,"7-Eleven, 922 Bergen Avenue, Jersey City, NJ 07306, United States of America",7306,Hudson County,Jersey City,Jersey City,New Jersey,Sip Ave
JC057,40.7443187,-74.0439909,"461 Palisade Avenue, Jersey City, NJ 07087, United States of America",7087,Hudson County,Not found,Jersey City,New Jersey,Riverview Park
JC059,40.74871595,-74.0404433,"445 Ogden Avenue, Jersey City, NJ 07307, United States of America",7307,Hudson County,Jersey City,Jersey City,New Jersey,Heights Elevator
JC063,40.71113,-74.0789,"363 Martin Luther King Drive, Jersey City, NJ 07305, United States of America",7305,Hudson County,Jersey City,Jersey City,New Jersey,Jackson Square
JC065,40.737711,-74.066921,"36 Dey Street, Jersey City, NJ 07306, United States of America",7306,Hudson County,Indian Square,Jersey City,New Jersey,Dey St
JC066,40.7272235,-74.0337589,"Newport (PATH), Town Square Place, Jersey City, NJ 07310, United States of America",7310,Hudson County,Newport,Jersey City,New Jersey,Newport PATH
JC072,40.71241882,-74.03852552,"174 Washington Street, Jersey City, NJ 07302, United States of America",7302,Hudson County,Jersey City,Jersey City,New Jersey,Morris Canal
JC074,40.72333159,-74.04595256,"577 Jersey Avenue, Jersey City, NJ 07302, United States of America",7302,Hudson County,Jersey City,Jersey City,New Jersey,Jersey & 3rd
JC075,40.725685,-74.04879,"320 1/2 6th Street, Jersey City, NJ 07302, United States of America",7302,Hudson County,Jersey City,Jersey City,New Jersey,Monmouth and 6th
JC076,40.72163,-74.049968,"158 Wayne Street, Jersey City, NJ 07302, United States of America",7302,Hudson County,Not found,Jersey City,New Jersey,Dixon Mills
JC077,40.719282,-74.071262,"139 Monticello Avenue, Jersey City, NJ 07304, United States of America",7304,Hudson County,Not found,Jersey City,New Jersey,Astor Place
JC078,40.71346383,-74.06285852,"Monumental Baptist Church, Lafayette Street, Jersey City, NJ 07304, United States of America",7304,Hudson County,Jersey City,Jersey City,New Jersey,Lafayette Park
JC080,40.74590997,-74.05727148,"199 Sherman Place, Jersey City, NJ 07307, United States of America",7307,Hudson County,Not found,Jersey City,New Jersey,Leonard Gordon Park
JC081,40.72601173,-74.05038893,"183 Brunswick Street, Jersey City, NJ 07302, United States of America",7302,Hudson County,Jersey City,Jersey City,New Jersey,Brunswick & 6th
JC082,40.72165072,-74.04288411,"367 Manila Avenue, Jersey City, NJ 07302, United States of America",7302,Hudson County,Newport,Jersey City,New Jersey,Manila & 1st
JC084,40.714358,-74.066611,"2 Berry Lane, Jersey City, NJ 07304, United States of America",7304,Hudson County,Not found,Jersey City,New Jersey,Communipaw & Berry Lane
JC093,40.725726,-74.071959,"2614 Kennedy Boulevard, Jersey City, NJ 07306, United States of America",7306,Hudson County,Jersey City,Jersey City,New Jersey,Fairmount Ave
JC094,40.727551,-74.071061,"St. Peter's University, Tuers Avenue, Jersey City, NJ 07306, United States of America",7306,Hudson County,Not found,Jersey City,New Jersey,Glenwood Ave
JC095,40.72210379,-74.071455,"644 Bergen Avenue, Jersey City, NJ 07304, United States of America",7304,Hudson County,Jersey City,Jersey City,New Jersey,Bergen Ave
JC096,40.71649,-74.04105,"163 York Street, Jersey City, NJ 07302, United States of America",7302,Hudson County,Downtown Jersey City,Jersey City,New Jersey,York St
JC097,40.716615,-74.042412,"190 York Street, Jersey City, NJ 07302, United States of America",7302,Hudson County,Downtown Jersey City,Jersey City,New Jersey,York St & Marin Blvd
JC098,40.724294,-74.035483,"Thomas Gangemi Drive, Jersey City, NJ 07302, United States of America",7302,Hudson County,Newport,Jersey City,New Jersey,Washington St
JC099,40.71942,-74.05099,"358 Montgomery Street, Jersey City, NJ 07302, United States of America",7302,Hudson County,Jersey City,Jersey City,New Jersey,Montgomery St
JC102,40.71517768,-74.03768331,"93 Grand Street, Jersey City, NJ 07302, United States of America",7302,Hudson County,Jersey City,Jersey City,New Jersey,Grand St
JC103,40.73367,-74.0625,"91 Van Reipen Avenue, Jersey City, NJ 07306, United States of America",7306,Hudson County,Indian Square,Jersey City,New Jersey,Journal Square
JC104,40.7192517,-74.034234,"Harborside Plaza 5, 185 Hudson Street, Jersey City, NJ 07311, United States of America",7311,Hudson County,Downtown Jersey City,Jersey City,New Jersey,Harborside
JC105,40.735208,-74.046964,"92 Hoboken Avenue, Jersey City, NJ 07310, United States of America",7310,Hudson County,Not found,Jersey City,New Jersey,Hoboken Ave at Monmouth St
JC106,40.71687,-74.03281,"Exchange Place (PATH), Christopher Columbus Drive, Jersey City, NJ 07311, United States of America",7311,Hudson County,Downtown Jersey City,Jersey City,New Jersey,Columbus Dr at Exchange Pl
JC107,40.709198,-74.080843,"84 Grant Avenue, Jersey City, NJ 07305, United States of America",7305,Hudson County,Not found,Jersey City,New Jersey,Grant Ave & MLK Dr
JC108,40.706575,-74.086701,"110 Bergen Avenue, Jersey City, NJ 07305, United States of America",7305,Hudson County,Not found,Jersey City,New Jersey,Bergen Ave & Stegman St
JC109,40.73100889,-74.064437,"40 John F. Kennedy Boulevard, Jersey City, NJ 07306, United States of America",7306,Hudson County,Jersey City,Jersey City,New Jersey,Bergen Ave & Sip Ave
JC110,40.715391,-74.049692,"Jersey City Medical Center, 355 Grand Street, Jersey City, NJ 07302, United States of America",7302,Hudson County,Not found,Jersey City,New Jersey,JC Medical Center
JC115,40.71941,-74.04309,"315 Grove Street, Jersey City, NJ 07302, United States of America",7302,Hudson County,Downtown Jersey City,Jersey City,New Jersey,Grove St - PATH
JC116,40.71636596,-74.03434396,"Montgomery Street, Jersey City, NJ 07306, United States of America",7306,Hudson County,Downtown Jersey City,Jersey City,New Jersey,Exchange Pl
JCSYS,40.70965083,-74.06860113,"198 Forrest Street, Jersey City, NJ 07304, United States of America",7304,Hudson County,Not found,Jersey City,New Jersey,JCBS Depot
MTL-ECO5-LAB,40.74716563,-74.08896387,"Koppers Dredged Material Recycling Facility, 1 Fish House Road, Kearny, NJ 07032, United States of America",7032,Hudson County,Kearny,Kearny,New Jersey,MTL-ECO5-LAB
Shop Morgan ,40.70987334,-73.9315939,"154 Morgan Avenue, New York, NY 11237, United States of America",11237,Not found,Not found,New York,New York,Shop Morgan
SYS035,40.72865963,-74.01197971,"Pier 40, West Houston Street, New York, NY 10014, United States of America",10014,New York County,West Village,New York,New York,Pier 40 Dock Station
